{
    "links": {
        "self": "http://www.neowsapp.com/rest/v1/neo/3553585?api_key=iIulBulltgU6a56xZRHN4H3l9WmuAYTsLGpBGhQ2"
    },
    "id": "3553585",
    "neo_reference_id": "3553585",
    "name": "(2010 XN56)",
    "designation": "2010 XN56",
    "nasa_jpl_url": "http://ssd.jpl.nasa.gov/sbdb.cgi?sstr=3553585",
    "absolute_magnitude_h": 24.6,
    "estimated_diameter": {
        "kilometers": {
            "estimated_diameter_min": 0.0319561887,
            "estimated_diameter_max": 0.0714562102
        },
        "meters": {
            "estimated_diameter_min": 31.9561886721,
            "estimated_diameter_max": 71.4562101727
        },
        "miles": {
            "estimated_diameter_min": 0.0198566489,
            "estimated_diameter_max": 0.0444008168
        },
        "feet": {
            "estimated_diameter_min": 104.8431420431,
            "estimated_diameter_max": 234.436392583
        }
    },
    "is_potentially_hazardous_asteroid": false,
    "close_approach_data": [
        {
            "close_approach_date": "1908-11-12",
            "close_approach_date_full": "1908-Nov-12 10:55",
            "epoch_date_close_approach": -1929272700000,
            "relative_velocity": {
                "kilometers_per_second": "9.8408245124",
                "kilometers_per_hour": "35426.9682444785",
                "miles_per_hour": "22012.9403516872"
            },
            "miss_distance": {
                "astronomical": "0.2810934241",
                "lunar": "109.3453419749",
                "kilometers": "42050977.516366667",
                "miles": "26129265.7985153246"
            },
            "orbiting_body": "Earth"
        },
        {
            "close_approach_date": "2001-12-22",
            "close_approach_date_full": "2001-Dec-22 01:41",
            "epoch_date_close_approach": 1008985260000,
            "relative_velocity": {
                "kilometers_per_second": "11.9456030386",
                "kilometers_per_hour": "43004.1709388693",
                "miles_per_hour": "26721.119436988"
            },
            "miss_distance": {
                "astronomical": "0.2786836977",
                "lunar": "108.4079584053",
                "kilometers": "41690487.579643899",
                "miles": "25905267.7387638462"
            },
            "orbiting_body": "Earth"
        },
        {
            "close_approach_date": "2010-12-03",
            "close_approach_date_full": "2010-Dec-03 03:43",
            "epoch_date_close_approach": 1291347780000,
            "relative_velocity": {
                "kilometers_per_second": "6.5893115649",
                "kilometers_per_hour": "23721.521633481",
                "miles_per_hour": "14739.631039426"
            },
            "miss_distance": {
                "astronomical": "0.0883391279",
                "lunar": "34.3639207531",
                "kilometers": "13215345.371497573",
                "miles": "8211634.8352815874"
            },
            "orbiting_body": "Earth"
        },
        {
            "close_approach_date": "2019-10-29",
            "close_approach_date_full": "2019-Oct-29 02:54",
            "epoch_date_close_approach": 1572317640000,
            "relative_velocity": {
                "kilometers_per_second": "14.3419214038",
                "kilometers_per_hour": "51630.9170538067",
                "miles_per_hour": "32081.443988239"
            },
            "miss_distance": {
                "astronomical": "0.433579616",
                "lunar": "168.662470624",
                "kilometers": "64862587.02901792",
                "miles": "40303742.670450496"
            },
            "orbiting_body": "Earth"
        },
        {
            "close_approach_date": "2112-11-19",
            "close_approach_date_full": "2112-Nov-19 22:11",
            "epoch_date_close_approach": 4509036660000,
            "relative_velocity": {
                "kilometers_per_second": "8.7328458407",
                "kilometers_per_hour": "31438.2450264002",
                "miles_per_hour": "19534.5028609874"
            },
            "miss_distance": {
                "astronomical": "0.2319061522",
                "lunar": "90.2114932058",
                "kilometers": "34692666.409015814",
                "miles": "21557023.2941096732"
            },
            "orbiting_body": "Earth"
        }
    ],
    "orbital_data": {
        "orbit_id": "7",
        "orbit_determination_date": "2017-04-06 08:55:14",
        "first_observation_date": "2010-12-10",
        "last_observation_date": "2011-01-02",
        "data_arc_in_days": 23,
        "observations_used": 22,
        "orbit_uncertainty": "7",
        "minimum_orbit_intersection": ".0649748",
        "jupiter_tisserand_invariant": "4.532",
        "epoch_osculation": "2459000.5",
        "eccentricity": ".2919412853936874",
        "semi_major_axis": "1.473145690271401",
        "inclination": "10.91734773109395",
        "ascending_node_longitude": "259.9166490605771",
        "orbital_period": "653.0808904308356",
        "perihelion_distance": "1.043073643881397",
        "perihelion_argument": "163.8155334515357",
        "aphelion_distance": "1.903217736661405",
        "perihelion_time": "2458790.224771394925",
        "mean_anomaly": "115.9107292940211",
        "mean_motion": ".5512334004483105",
        "equinox": "J2000",
        "orbit_class": {
            "orbit_class_type": "AMO",
            "orbit_class_description": "Near-Earth asteroid orbits similar to that of 1221 Amor",
            "orbit_class_range": "1.017 AU < q (perihelion) < 1.3 AU"
        }
    },
    "is_sentry_object": false
}